{"type": "FeatureCollection", "features": [ {"type": "Feature", "properties": {"norad_id": 35142, "name": "FENGYUN 1C DEB", "group": "fengyun-1c-debris", "lat": 46.47132498528253, "lon": -178.27579126652182, "alt_km": 866.0110626780152, "timestamp": "2025-12-26T06:43:29.799158+00:00", "meta": {"OBJECT_NAME": "FENGYUN 1C DEB", "OBJECT_ID": "1999-025DLW", "EPOCH": "2025-12-22T11:17:59.858880", "MEAN_MOTION": 13.90511654, "ECCENTRICITY": 0.01079849, "INCLINATION": 99.0448, "RA_OF_ASC_NODE": 348.3644, "ARG_OF_PERICENTER": 187.5379, "MEAN_ANOMALY": 327.226, "EPHEMERIS_TYPE": 0, "CLASSIFICATION_TYPE": "U", "NORAD_CAT_ID": 35142, "ELEMENT_SET_NO": 999, "REV_AT_EPOCH": 85824, "BSTAR": 0.00012122945, "MEAN_MOTION_DOT": 1.15e-06, "MEAN_MOTION_DDOT": 0}, "tle": {"line1": "1 35142U 99025DLW 25356.47083170  .00000115  00000+0  12123-3 0  9999", "line2": "2 35142  99.0448 348.3644 0107984 187.5379 327.2260 13.90511654858246"}}, "geometry": {"type": "Point", "coordinates": [-178.27579126652182, 46.47132498528253]}}, {"type": "Feature", "properties": {"norad_id": 35144, "name": "FENGYUN 1C DEB", "group": "fengyun-1c-debris", "lat": 34.57439605814403, "lon": -57.66272639718559, "alt_km": 711.5180154645368, "timestamp": "2025-12-26T06:43:29.799168+00:00", "meta": {"OBJECT_NAME": "FENGYUN 1C DEB", "OBJECT_ID": "1999-025DLY", "EPOCH": "2025-12-25T18:32:40.900704", "MEAN_MOTION": 14.59485754, "ECCENTRICITY": 0.00270446, "INCLINATION": 98.6996, "RA_OF_ASC_NODE": 115.748, "ARG_OF_PERICENTER": 319.8084, "MEAN_ANOMALY": 40.1114, "EPHEMERIS_TYPE": 0, "CLASSIFICATION_TYPE": "U", "NORAD_CAT_ID": 35144, "ELEMENT_SET_NO": 999, "REV_AT_EPOCH": 65403, "BSTAR": 0.0026853326, "MEAN_MOTION_DOT": 0.00012776, "MEAN_MOTION_DDOT": 0}, "tle": {"line1": "1 35144U 99025DLY 25359.77269561  .00012776  00000+0  26853-2 0  9997", "line2": "2 35144  98.6996 115.7480 0027044 319.8084  40.1114 14.59485754654033"}}, "geometry": {"type": "Point", "coordinates": [-57.66272639718559, 34.57439605814403]}}, {"type": "Feature", "properties": {"norad_id": 35147, "name": "FENGYUN 1C DEB", "group": "fengyun-1c-debris", "lat": -6.9212383002057765, "lon": 77.03229162762851, "alt_km": 668.6414163937834, "timestamp": "2025-12-26T06:43:29.799178+00:00", "meta": {"OBJECT_NAME": "FENGYUN 1C DEB", "OBJECT_ID": "1999-025DMB", "EPOCH": "2025-12-24T04:16:29.549856", "MEAN_MOTION": 14.74616621, "ECCENTRICITY": 0.00275467, "INCLINATION": 99.4856, "RA_OF_ASC_NODE": 73.4109, "ARG_OF_PERICENTER": 164.4152, "MEAN_ANOMALY": 195.7906, "EPHEMERIS_TYPE": 0, "CLASSIFICATION_TYPE": "U", "NORAD_CAT_ID": 35147, "ELEMENT_SET_NO": 999, "REV_AT_EPOCH": 74473, "BSTAR": 0.0024185076, "MEAN_MOTION_DOT": 0.00016193, "MEAN_MOTION_DDOT": 0}, "tle": {"line1": "1 35147U 99025DMB 25358.17811979  .00016193  00000+0  24185-2 0  9992", "line2": "2 35147  99.4856  73.4109 0027546 164.4152 195.7906 14.74616621744734"}}, "geometry": {"type": "Point", "coordinates": [77.03229162762851, -6.9212383002057765]}}, {"type": "Feature", "properties": {"norad_id": 35152, "name": "FENGYUN 1C DEB", "group": "fengyun-1c-debris", "lat": -7.838056095901273, "lon": -175.23291761967565, "alt_km": 840.3162363652209, "timestamp": "2025-12-26T06:43:29.799188+00:00", "meta": {"OBJECT_NAME": "FENGYUN 1C DEB", "OBJECT_ID": "1999-025DMG", "EPOCH": "2025-12-24T11:08:58.902432", "MEAN_MOTION": 13.76447569, "ECCENTRICITY": 0.0194175, "INCLINATION": 99.8191, "RA_OF_ASC_NODE": 181.5284, "ARG_OF_PERICENTER": 345.1491, "MEAN_ANOMALY": 14.4005, "EPHEMERIS_TYPE": 0, "CLASSIFICATION_TYPE": "U", "NORAD_CAT_ID": 35152, "ELEMENT_SET_NO": 999, "REV_AT_EPOCH": 62354, "BSTAR": 0.00059063629, "MEAN_MOTION_DOT": 6.15e-06, "MEAN_MOTION_DDOT": 0}, "tle": {"line1": "1 35152U 99025DMG 25358.46457063  .00000615  00000+0  59064-3 0  9997", "line2": "2 35152  99.8191 181.5284 0194175 345.1491  14.4005 13.76447569623544"}}, "geometry": {"type": "Point", "coordinates": [-175.23291761967565, -7.838056095901273]}}, {"type": "Feature", "properties": {"norad_id": 35153, "name": "FENGYUN 1C DEB", "group": "fengyun-1c-debris", "lat": -80.43609198048252, "lon": 4.936940106970983, "alt_km": 739.4737449381637, "timestamp": "2025-12-26T06:43:29.799202+00:00", "meta": {"OBJECT_NAME": "FENGYUN 1C DEB", "OBJECT_ID": "1999-025DMH", "EPOCH": "2025-12-25T09:57:58.794912", "MEAN_MOTION": 14.73808932, "ECCENTRICITY": 0.017077, "INCLINATION": 98.9016, "RA_OF_ASC_NODE": 252.4543, "ARG_OF_PERICENTER": 43.8096, "MEAN_ANOMALY": 317.6511, "EPHEMERIS_TYPE": 0, "CLASSIFICATION_TYPE": "U", "NORAD_CAT_ID": 35153, "ELEMENT_SET_NO": 999, "REV_AT_EPOCH": 97404, "BSTAR": 0.00043864, "MEAN_MOTION_DOT": 3.556e-05, "MEAN_MOTION_DDOT": 0}, "tle": {"line1": "1 35153U 99025DMH 25359.41526383  .00003556  00000+0  43864-3 0  9994", "line2": "2 35153  98.9016 252.4543 0170770  43.8096 317.6511 14.73808932974042"}}, "geometry": {"type": "Point", "coordinates": [4.936940106970983, -80.43609198048252]}}, {"type": "Feature", "properties": {"norad_id": 35154, "name": "FENGYUN 1C DEB", "group": "fengyun-1c-debris", "lat": 62.68622274600273, "lon": 103.85662666777961, "alt_km": 756.490170709706, "timestamp": "2025-12-26T06:43:29.799212+00:00", "meta": {"OBJECT_NAME": "FENGYUN 1C DEB", "OBJECT_ID": "1999-025DMJ", "EPOCH": "2025-12-24T01:58:11.654976", "MEAN_MOTION": 14.18912921, "ECCENTRICITY": 0.0178909, "INCLINATION": 99.4221, "RA_OF_ASC_NODE": 120.2762, "ARG_OF_PERICENTER": 10.5644, "MEAN_ANOMALY": 349.921, "EPHEMERIS_TYPE": 0, "CLASSIFICATION_TYPE": "U", "NORAD_CAT_ID": 35154, "ELEMENT_SET_NO": 999, "REV_AT_EPOCH": 64738, "BSTAR": 0.00026986372, "MEAN_MOTION_DOT": 6.08e-06, "MEAN_MOTION_DDOT": 0}, "tle": {"line1": "1 35154U 99025DMJ 25358.08207934  .00000608  00000+0  26986-3 0  9996", "line2": "2 35154  99.4221 120.2762 0178909  10.5644 349.9210 14.18912921647385"}}, "geometry": {"type": "Point", "coordinates": [103.85662666777961, 62.68622274600273]}}, {"type": "Feature", "properties": {"norad_id": 35155, "name": "FENGYUN 1C DEB", "group": "fengyun-1c-debris", "lat": -21.16396498980337, "lon": -171.918793073393, "alt_km": 850.9974807676153, "timestamp": "2025-12-26T06:43:29.799222+00:00", "meta": {"OBJECT_NAME": "FENGYUN 1C DEB", "OBJECT_ID": "1999-025DMK", "EPOCH": "2025-12-24T18:15:01.567584", "MEAN_MOTION": 14.19312867, "ECCENTRICITY": 0.00258689, "INCLINATION": 98.5001, "RA_OF_ASC_NODE": 9.9422, "ARG_OF_PERICENTER": 39.4189, "MEAN_ANOMALY": 320.8864, "EPHEMERIS_TYPE": 0, "CLASSIFICATION_TYPE": "U", "NORAD_CAT_ID": 35155, "ELEMENT_SET_NO": 999, "REV_AT_EPOCH": 72884, "BSTAR": 0.00057480531, "MEAN_MOTION_DOT": 1.169e-05, "MEAN_MOTION_DDOT": 0}, "tle": {"line1": "1 35155U 99025DMK 25358.76043481  .00001169  00000+0  57481-3 0  9994", "line2": "2 35155  98.5001   9.9422 0025868  39.4189 320.8864 14.19312867728845"}}, "geometry": {"type": "Point", "coordinates": [-171.918793073393, -21.16396498980337]}}, {"type": "Feature", "properties": {"norad_id": 35156, "name": "FENGYUN 1C DEB", "group": "fengyun-1c-debris", "lat": -39.81163347727283, "lon": 158.96941424080887, "alt_km": 872.8540181963235, "timestamp": "2025-12-26T06:43:29.799233+00:00", "meta": {"OBJECT_NAME": "FENGYUN 1C DEB", "OBJECT_ID": "1999-025DML", "EPOCH": "2025-12-22T09:45:46.789920", "MEAN_MOTION": 14.10637167, "ECCENTRICITY": 0.00374137, "INCLINATION": 98.7528, "RA_OF_ASC_NODE": 342.5755, "ARG_OF_PERICENTER": 121.1131, "MEAN_ANOMALY": 239.3719, "EPHEMERIS_TYPE": 0, "CLASSIFICATION_TYPE": "U", "NORAD_CAT_ID": 35156, "ELEMENT_SET_NO": 999, "REV_AT_EPOCH": 64180, "BSTAR": 0.00031397822, "MEAN_MOTION_DOT": 5.21e-06, "MEAN_MOTION_DDOT": 0}, "tle": {"line1": "1 35156U 99025DML 25356.40679155  .00000521  00000+0  31398-3 0  9997", "line2": "2 35156  98.7528 342.5755 0037413 121.1131 239.3719 14.10637167641809"}}, "geometry": {"type": "Point", "coordinates": [158.96941424080887, -39.81163347727283]}}, {"type": "Feature", "properties": {"norad_id": 35159, "name": "FENGYUN 1C DEB", "group": "fengyun-1c-debris", "lat": 31.43397864510398, "lon": -98.5082549889623, "alt_km": 732.4178995207449, "timestamp": "2025-12-26T06:43:29.799243+00:00", "meta": {"OBJECT_NAME": "FENGYUN 1C DEB", "OBJECT_ID": "1999-025DMP", "EPOCH": "2025-12-23T17:16:37.371936", "MEAN_MOTION": 14.45286937, "ECCENTRICITY": 0.00094944, "INCLINATION": 98.8378, "RA_OF_ASC_NODE": 73.3712, "ARG_OF_PERICENTER": 158.5401, "MEAN_ANOMALY": 355.5286, "EPHEMERIS_TYPE": 0, "CLASSIFICATION_TYPE": "U", "NORAD_CAT_ID": 35159, "ELEMENT_SET_NO": 999, "REV_AT_EPOCH": 61639, "BSTAR": 0.0019831289, "MEAN_MOTION_DOT": 6.923e-05, "MEAN_MOTION_DDOT": 0}, "tle": {"line1": "1 35159U 99025DMP 25357.71987699  .00006923  00000+0  19831-2 0  9999", "line2": "2 35159  98.8378  73.3712 0009494 158.5401 355.5286 14.45286937616399"}}, "geometry": {"type": "Point", "coordinates": [-98.5082549889623, 31.43397864510398]}}, {"type": "Feature", "properties": {"norad_id": 35160, "name": "FENGYUN 1C DEB", "group": "fengyun-1c-debris", "lat": 42.2098981967123, "lon": -56.03430248881369, "alt_km": 708.9294895968478, "timestamp": "2025-12-26T06:43:29.799253+00:00", "meta": {"OBJECT_NAME": "FENGYUN 1C DEB", "OBJECT_ID": "1999-025DMQ", "EPOCH": "2025-12-24T13:56:33.825120", "MEAN_MOTION": 14.36001877, "ECCENTRICITY": 0.01764255, "INCLINATION": 99.1558, "RA_OF_ASC_NODE": 113.7491, "ARG_OF_PERICENTER": 204.8514, "MEAN_ANOMALY": 154.4098, "EPHEMERIS_TYPE": 0, "CLASSIFICATION_TYPE": "U", "NORAD_CAT_ID": 35160, "ELEMENT_SET_NO": 999, "REV_AT_EPOCH": 65101, "BSTAR": 0.00054836097, "MEAN_MOTION_DOT": 1.847e-05, "MEAN_MOTION_DDOT": 0}, "tle": {"line1": "1 35160U 99025DMQ 25358.58094705  .00001847  00000+0  54836-3 0  9999", "line2": "2 35160  99.1558 113.7491 0176425 204.8514 154.4098 14.36001877651010"}}, "geometry": {"type": "Point", "coordinates": [-56.03430248881369, 42.2098981967123]}}]}